OBJECT_NAME,OBJECT_ID,EPOCH,MEAN_MOTION,ECCENTRICITY,INCLINATION,RA_OF_ASC_NODE,ARG_OF_PERICENTER,MEAN_ANOMALY,EPHEMERIS_TYPE,CLASSIFICATION_TYPE,NORAD_CAT_ID,ELEMENT_SET_NO,REV_AT_EPOCH,BSTAR,MEAN_MOTION_DOT,MEAN_MOTION_DDOT
HAWK-5A,2022-057AB,2026-07-18T04:28:54.360192,15.52389197,.00030536,97.6633,0.0668,324.1521,35.9525,0,U,52757,999,23115,.17538043E-3,.10595E-3,0
HAWK-6B,2023-011A,2026-07-17T22:27:23.310144,15.23169163,.00044723,40.4976,172.6890,254.5549,105.4766,0,U,55324,999,19253,.11460971E-3,.257E-4,0
HAWK-6C,2023-011C,2026-07-18T06:18:33.108480,15.23170261,.00049743,40.4967,167.6154,250.3835,109.6437,0,U,55326,999,19259,.10019816E-3,.2222E-4,0
HAWK-6A,2023-011D,2026-07-18T04:44:11.491872,15.23169943,.00046206,40.4977,169.6247,247.0466,112.9856,0,U,55327,999,19258,.10414425E-3,.2317E-4,0
HAWK-7A,2023-054P,2026-07-18T03:52:05.725632,15.27650536,.00011481,97.2655,85.7107,314.4527,45.6619,0,U,56191,999,18175,.1091729E-3,.2878E-4,0
HAWK-7B,2023-054R,2026-07-18T03:52:00.039648,15.27648841,.00009998,97.2681,83.9855,10.0646,350.0613,0,U,56193,999,18175,.10877939E-3,.2867E-4,0
HAWK-7C,2023-054Y,2026-07-18T03:51:48.960576,15.27651601,.00006263,97.2658,84.7447,338.3303,21.7910,0,U,56200,999,18175,.10951301E-3,.2888E-4,0
